STARLINK-36956          
1 68009U 26039Z   26068.58335648 -.01630572  00000+0 -69279-2 0  9997
2 68009  42.9972  55.3731 0001577 260.8451 342.9544 15.87115194  2867
STARLINK-36953          
1 68010U 26039AA  26068.58335648 -.01632246  00000+0 -68521-2 0  9998
2 68010  42.9971  55.3545 0001588 266.4676 344.5966 15.87358295  2861
STARLINK-36991          
1 68011U 26039AB  26068.58335648 -.01632362  00000+0 -68092-2 0  9991
2 68011  42.9970  55.3454 0001678 265.3928 349.2620 15.87483792  2868
STARLINK-36936          
1 68012U 26039AC  26068.58335648 -.01622290  00000+0 -66771-2 0  9993
2 68012  42.9971  55.3270 0001593 265.0092 356.7513 15.87733491  2869
STARLINK-36967          
1 68013U 26039AD  26068.58335648 -.01628375  00000+0 -68730-2 0  9991
2 68013  42.9970  55.3634 0001604 261.0312 346.3564 15.87242994  2861
STARLINK-36985          
1 68014U 26039AE  26068.58335648 -.01630517  00000+0 -67541-2 0  9992
2 68014  42.9971  55.3366 0001614 265.4231 352.7333 15.87620553  2860
STARLINK-36335          
1 68015U 26040A   26068.58335648 -.00967453  32871-3 -13888-2 0  9996
2 68015  97.2791  16.7454 0001296 106.9069 117.0420 16.05480433  2352
STARLINK-36923          
1 68016U 26040B   26068.58335648 -.00994476  34700-3 -14058-2 0  9995
2 68016  97.2791  16.7479 0001105  98.7204 130.1750 16.05737745  2407
STARLINK-36568          
1 68017U 26040C   26068.58335648 -.01008863  35684-3 -14163-2 0  9992
2 68017  97.2789  16.7488 0001115  97.9833 133.1911 16.05853390  2402
STARLINK-36930          
1 68018U 26040D   26068.58335648 -.00970967  33143-3 -13835-2 0  9998
2 68018  97.2789  16.7468 0001130  96.9402 129.4748 16.05603921  2408
STARLINK-36921          
1 68019U 26040E   26068.58335648 -.01046521  38288-3 -14503-2 0  9998
2 68019  97.2791  16.7508 0001232 106.5111 128.7954 16.06070154  2403
STARLINK-36928          
1 68020U 26040F   26068.58335648 -.01023349  36680-3 -14285-2 0  9994
2 68020  97.2787  16.7492 0001255 103.3232 129.6248 16.05947928  2403
