CCSDS_OMM_VERS = 2.0
CREATION_DATE  = 
ORIGINATOR     = 

OBJECT_NAME    = STARLINK-36956
OBJECT_ID      = 2026-039Z
CENTER_NAME    = EARTH
REF_FRAME      = TEME
TIME_SYSTEM    = UTC
MEAN_ELEMENT_THEORY = SGP/SGP4

EPOCH          = 2026-03-09T14:00:01.999872
MEAN_MOTION    = 15.87115194
ECCENTRICITY   = .00015777
INCLINATION    = 42.9972
RA_OF_ASC_NODE = 55.3731
ARG_OF_PERICENTER = 260.8451
MEAN_ANOMALY   = 342.9544

EPHEMERIS_TYPE = 0
CLASSIFICATION_TYPE = U
NORAD_CAT_ID   = 68009
ELEMENT_SET_NO = 999
REV_AT_EPOCH   = 286
BSTAR          = -.69279446E-2
MEAN_MOTION_DOT = -.1630572E-1
MEAN_MOTION_DDOT = 0

CCSDS_OMM_VERS = 2.0
CREATION_DATE  = 
ORIGINATOR     = 

OBJECT_NAME    = STARLINK-36953
OBJECT_ID      = 2026-039AA
CENTER_NAME    = EARTH
REF_FRAME      = TEME
TIME_SYSTEM    = UTC
MEAN_ELEMENT_THEORY = SGP/SGP4

EPOCH          = 2026-03-09T14:00:01.999872
MEAN_MOTION    = 15.87358295
ECCENTRICITY   = .00015885
INCLINATION    = 42.9971
RA_OF_ASC_NODE = 55.3545
ARG_OF_PERICENTER = 266.4676
MEAN_ANOMALY   = 344.5966

EPHEMERIS_TYPE = 0
CLASSIFICATION_TYPE = U
NORAD_CAT_ID   = 68010
ELEMENT_SET_NO = 999
REV_AT_EPOCH   = 286
BSTAR          = -.68521088E-2
MEAN_MOTION_DOT = -.1632246E-1
MEAN_MOTION_DDOT = 0

CCSDS_OMM_VERS = 2.0
CREATION_DATE  = 
ORIGINATOR     = 

OBJECT_NAME    = STARLINK-36991
OBJECT_ID      = 2026-039AB
CENTER_NAME    = EARTH
REF_FRAME      = TEME
TIME_SYSTEM    = UTC
MEAN_ELEMENT_THEORY = SGP/SGP4

EPOCH          = 2026-03-09T14:00:01.999872
MEAN_MOTION    = 15.87483792
ECCENTRICITY   = .00016785
INCLINATION    = 42.9970
RA_OF_ASC_NODE = 55.3454
ARG_OF_PERICENTER = 265.3928
MEAN_ANOMALY   = 349.2620

EPHEMERIS_TYPE = 0
CLASSIFICATION_TYPE = U
NORAD_CAT_ID   = 68011
ELEMENT_SET_NO = 999
REV_AT_EPOCH   = 286
BSTAR          = -.68092343E-2
MEAN_MOTION_DOT = -.1632362E-1
MEAN_MOTION_DDOT = 0

CCSDS_OMM_VERS = 2.0
CREATION_DATE  = 
ORIGINATOR     = 

OBJECT_NAME    = STARLINK-36936
OBJECT_ID      = 2026-039AC
CENTER_NAME    = EARTH
REF_FRAME      = TEME
TIME_SYSTEM    = UTC
MEAN_ELEMENT_THEORY = SGP/SGP4

EPOCH          = 2026-03-09T14:00:01.999872
MEAN_MOTION    = 15.87733491
ECCENTRICITY   = .00015933
INCLINATION    = 42.9971
RA_OF_ASC_NODE = 55.3270
ARG_OF_PERICENTER = 265.0092
MEAN_ANOMALY   = 356.7513

EPHEMERIS_TYPE = 0
CLASSIFICATION_TYPE = U
NORAD_CAT_ID   = 68012
ELEMENT_SET_NO = 999
REV_AT_EPOCH   = 286
BSTAR          = -.66770924E-2
MEAN_MOTION_DOT = -.162229E-1
MEAN_MOTION_DDOT = 0

CCSDS_OMM_VERS = 2.0
CREATION_DATE  = 
ORIGINATOR     = 

OBJECT_NAME    = STARLINK-36967
OBJECT_ID      = 2026-039AD
CENTER_NAME    = EARTH
REF_FRAME      = TEME
TIME_SYSTEM    = UTC
MEAN_ELEMENT_THEORY = SGP/SGP4

EPOCH          = 2026-03-09T14:00:01.999872
MEAN_MOTION    = 15.87242994
ECCENTRICITY   = .00016049
INCLINATION    = 42.9970
RA_OF_ASC_NODE = 55.3634
ARG_OF_PERICENTER = 261.0312
MEAN_ANOMALY   = 346.3564

EPHEMERIS_TYPE = 0
CLASSIFICATION_TYPE = U
NORAD_CAT_ID   = 68013
ELEMENT_SET_NO = 999
REV_AT_EPOCH   = 286
BSTAR          = -.68730029E-2
MEAN_MOTION_DOT = -.1628375E-1
MEAN_MOTION_DDOT = 0

CCSDS_OMM_VERS = 2.0
CREATION_DATE  = 
ORIGINATOR     = 

OBJECT_NAME    = STARLINK-36985
OBJECT_ID      = 2026-039AE
CENTER_NAME    = EARTH
REF_FRAME      = TEME
TIME_SYSTEM    = UTC
MEAN_ELEMENT_THEORY = SGP/SGP4

EPOCH          = 2026-03-09T14:00:01.999872
MEAN_MOTION    = 15.87620553
ECCENTRICITY   = .00016144
INCLINATION    = 42.9971
RA_OF_ASC_NODE = 55.3366
ARG_OF_PERICENTER = 265.4231
MEAN_ANOMALY   = 352.7333

EPHEMERIS_TYPE = 0
CLASSIFICATION_TYPE = U
NORAD_CAT_ID   = 68014
ELEMENT_SET_NO = 999
REV_AT_EPOCH   = 286
BSTAR          = -.67541055E-2
MEAN_MOTION_DOT = -.1630517E-1
MEAN_MOTION_DDOT = 0

CCSDS_OMM_VERS = 2.0
CREATION_DATE  = 
ORIGINATOR     = 

OBJECT_NAME    = STARLINK-36335
OBJECT_ID      = 2026-040A
CENTER_NAME    = EARTH
REF_FRAME      = TEME
TIME_SYSTEM    = UTC
MEAN_ELEMENT_THEORY = SGP/SGP4

EPOCH          = 2026-03-09T14:00:01.999872
MEAN_MOTION    = 16.05480433
ECCENTRICITY   = .0001296
INCLINATION    = 97.2791
RA_OF_ASC_NODE = 16.7454
ARG_OF_PERICENTER = 106.9069
MEAN_ANOMALY   = 117.0420

EPHEMERIS_TYPE = 0
CLASSIFICATION_TYPE = U
NORAD_CAT_ID   = 68015
ELEMENT_SET_NO = 999
REV_AT_EPOCH   = 235
BSTAR          = -.13887943E-2
MEAN_MOTION_DOT = -.967453E-2
MEAN_MOTION_DDOT = .32871297E-3

CCSDS_OMM_VERS = 2.0
CREATION_DATE  = 
ORIGINATOR     = 

OBJECT_NAME    = STARLINK-36923
OBJECT_ID      = 2026-040B
CENTER_NAME    = EARTH
REF_FRAME      = TEME
TIME_SYSTEM    = UTC
MEAN_ELEMENT_THEORY = SGP/SGP4

EPOCH          = 2026-03-09T14:00:01.999872
MEAN_MOTION    = 16.05737745
ECCENTRICITY   = .00011052
INCLINATION    = 97.2791
RA_OF_ASC_NODE = 16.7479
ARG_OF_PERICENTER = 98.7204
MEAN_ANOMALY   = 130.1750

EPHEMERIS_TYPE = 0
CLASSIFICATION_TYPE = U
NORAD_CAT_ID   = 68016
ELEMENT_SET_NO = 999
REV_AT_EPOCH   = 240
BSTAR          = -.14057837E-2
MEAN_MOTION_DOT = -.994476E-2
MEAN_MOTION_DDOT = .34699623E-3

CCSDS_OMM_VERS = 2.0
CREATION_DATE  = 
ORIGINATOR     = 

OBJECT_NAME    = STARLINK-36568
OBJECT_ID      = 2026-040C
CENTER_NAME    = EARTH
REF_FRAME      = TEME
TIME_SYSTEM    = UTC
MEAN_ELEMENT_THEORY = SGP/SGP4

EPOCH          = 2026-03-09T14:00:01.999872
MEAN_MOTION    = 16.05853390
ECCENTRICITY   = .00011154
INCLINATION    = 97.2789
RA_OF_ASC_NODE = 16.7488
ARG_OF_PERICENTER = 97.9833
MEAN_ANOMALY   = 133.1911

EPHEMERIS_TYPE = 0
CLASSIFICATION_TYPE = U
NORAD_CAT_ID   = 68017
ELEMENT_SET_NO = 999
REV_AT_EPOCH   = 240
BSTAR          = -.14162739E-2
MEAN_MOTION_DOT = -.1008863E-1
MEAN_MOTION_DDOT = .35684459E-3

CCSDS_OMM_VERS = 2.0
CREATION_DATE  = 
ORIGINATOR     = 

OBJECT_NAME    = STARLINK-36930
OBJECT_ID      = 2026-040D
CENTER_NAME    = EARTH
REF_FRAME      = TEME
TIME_SYSTEM    = UTC
MEAN_ELEMENT_THEORY = SGP/SGP4

EPOCH          = 2026-03-09T14:00:01.999872
MEAN_MOTION    = 16.05603921
ECCENTRICITY   = .00011304
INCLINATION    = 97.2789
RA_OF_ASC_NODE = 16.7468
ARG_OF_PERICENTER = 96.9402
MEAN_ANOMALY   = 129.4748

EPHEMERIS_TYPE = 0
CLASSIFICATION_TYPE = U
NORAD_CAT_ID   = 68018
ELEMENT_SET_NO = 999
REV_AT_EPOCH   = 240
BSTAR          = -.13834916E-2
MEAN_MOTION_DOT = -.970967E-2
MEAN_MOTION_DDOT = .33142788E-3

CCSDS_OMM_VERS = 2.0
CREATION_DATE  = 
ORIGINATOR     = 

OBJECT_NAME    = STARLINK-36921
OBJECT_ID      = 2026-040E
CENTER_NAME    = EARTH
REF_FRAME      = TEME
TIME_SYSTEM    = UTC
MEAN_ELEMENT_THEORY = SGP/SGP4

EPOCH          = 2026-03-09T14:00:01.999872
MEAN_MOTION    = 16.06070154
ECCENTRICITY   = .00012326
INCLINATION    = 97.2791
RA_OF_ASC_NODE = 16.7508
ARG_OF_PERICENTER = 106.5111
MEAN_ANOMALY   = 128.7954

EPHEMERIS_TYPE = 0
CLASSIFICATION_TYPE = U
NORAD_CAT_ID   = 68019
ELEMENT_SET_NO = 999
REV_AT_EPOCH   = 240
BSTAR          = -.14502563E-2
MEAN_MOTION_DOT = -.1046521E-1
MEAN_MOTION_DDOT = .38288189E-3

CCSDS_OMM_VERS = 2.0
CREATION_DATE  = 
ORIGINATOR     = 

OBJECT_NAME    = STARLINK-36928
OBJECT_ID      = 2026-040F
CENTER_NAME    = EARTH
REF_FRAME      = TEME
TIME_SYSTEM    = UTC
MEAN_ELEMENT_THEORY = SGP/SGP4

EPOCH          = 2026-03-09T14:00:01.999872
MEAN_MOTION    = 16.05947928
ECCENTRICITY   = .00012555
INCLINATION    = 97.2787
RA_OF_ASC_NODE = 16.7492
ARG_OF_PERICENTER = 103.3232
MEAN_ANOMALY   = 129.6248

EPHEMERIS_TYPE = 0
CLASSIFICATION_TYPE = U
NORAD_CAT_ID   = 68020
ELEMENT_SET_NO = 999
REV_AT_EPOCH   = 240
BSTAR          = -.14284889E-2
MEAN_MOTION_DOT = -.1023349E-1
MEAN_MOTION_DDOT = .36680236E-3

